{
    "type": "FeatureCollection",
    "features": [
        {
            "type": "Feature",
            "geometry": {
                "type": "Point",
                "coordinates": [
                    98.995,
                    19.639
                ]
            },
            "properties": {
                "Location": "ต.เมืองนะ อ.เชียงดาว จ.เชียงใหม่ (Tambon Mueang Na, Amphoe ChiangDao, ChiangMai)",
                "Magnitude": 1.9,
                "Depth_km": 1.0,
                "Time_UTC": "2026-10-02 04:22:36 UTC",
                "Time_TH": "2026-10-02 11:22:36",
                "Comments": ""
            }
        },
        {
            "type": "Feature",
            "geometry": {
                "type": "Point",
                "coordinates": [
                    93.502,
                    14.277
                ]
            },
            "properties": {
                "Location": "หมู่เกาะอันดามัน ประเทศอินเดีย (Andaman Islands, India Region)",
                "Magnitude": 3.5,
                "Depth_km": 9.0,
                "Time_UTC": "2026-10-02 00:52:41 UTC",
                "Time_TH": "2026-10-02 07:52:41",
                "Comments": "ทางทิศตะวันตกเฉียงใต้ของ อ.พบพระ จ.ตาก ประมาณ 604 กม."
            }
        },
        {
            "type": "Feature",
            "geometry": {
                "type": "Point",
                "coordinates": [
                    107.742,
                    15.083
                ]
            },
            "properties": {
                "Location": "ประเทศเวียดนาม (Vietnam)",
                "Magnitude": 3.2,
                "Depth_km": 10.0,
                "Time_UTC": "2026-10-01 23:52:29 UTC",
                "Time_TH": "2026-10-02 06:52:29",
                "Comments": "ทางทิศตะวันออกเฉียงใต้ของ อ. โขงเจียม จ.อุบลราชธานี ประมาณ 242 กม."
            }
        },
        {
            "type": "Feature",
            "geometry": {
                "type": "Point",
                "coordinates": [
                    98.529,
                    18.014
                ]
            },
            "properties": {
                "Location": "ต.นาคอเรือ  อ.ฮอด จ.เชียงใหม่ (Tambon Na Kho Ruea, Amphoe Hot, ChiangMai)",
                "Magnitude": 1.5,
                "Depth_km": 2.0,
                "Time_UTC": "2026-10-01 20:24:36 UTC",
                "Time_TH": "2026-10-02 03:24:36",
                "Comments": ""
            }
        },
        {
            "type": "Feature",
            "geometry": {
                "type": "Point",
                "coordinates": [
                    98.538,
                    18.0
                ]
            },
            "properties": {
                "Location": "ต.นาคอเรือ อ.ฮอด จ.เชียงใหม่ (Tambon Na Kho Ruea, Amphoe Hot, ChiangMai)",
                "Magnitude": 1.7,
                "Depth_km": 2.0,
                "Time_UTC": "2026-10-01 19:22:33 UTC",
                "Time_TH": "2026-10-02 02:22:33",
                "Comments": ""
            }
        },
        {
            "type": "Feature",
            "geometry": {
                "type": "Point",
                "coordinates": [
                    98.522,
                    18.025
                ]
            },
            "properties": {
                "Location": "ต.นาคอเรือ อ.ฮอด จ.เชียงใหม่ (Tambon Na Kho Ruea, Amphoe Hot, ChiangMai)",
                "Magnitude": 2.8,
                "Depth_km": 4.0,
                "Time_UTC": "2026-10-01 18:50:07 UTC",
                "Time_TH": "2026-10-02 01:50:07",
                "Comments": ""
            }
        },
        {
            "type": "Feature",
            "geometry": {
                "type": "Point",
                "coordinates": [
                    98.519,
                    20.121
                ]
            },
            "properties": {
                "Location": "ประเทศเมียนมา (Myanmar)",
                "Magnitude": 1.6,
                "Depth_km": 2.0,
                "Time_UTC": "2026-10-01 18:20:36 UTC",
                "Time_TH": "2026-10-02 01:20:36",
                "Comments": "ทางทิศตะวันตกเฉียงเหนือของ อ.เวียงแหง จ.เชียงใหม่ ประมาณ 64 กม."
            }
        },
        {
            "type": "Feature",
            "geometry": {
                "type": "Point",
                "coordinates": [
                    101.035,
                    18.472
                ]
            },
            "properties": {
                "Location": "ต.น้ำมวบ อ.เวียงสา จ.น่าน (Tambon Nam Muap, Amphoe WiangSa, Nan)",
                "Magnitude": 1.8,
                "Depth_km": 2.0,
                "Time_UTC": "2026-10-01 06:24:37 UTC",
                "Time_TH": "2026-10-01 13:24:37",
                "Comments": ""
            }
        },
        {
            "type": "Feature",
            "geometry": {
                "type": "Point",
                "coordinates": [
                    101.035,
                    18.459
                ]
            },
            "properties": {
                "Location": "ต.น้ำมวบ อ.เวียงสา จ.น่าน (Tambon Nam Muap, Amphoe WiangSa, Nan)",
                "Magnitude": 2.3,
                "Depth_km": 2.0,
                "Time_UTC": "2026-10-01 05:52:36 UTC",
                "Time_TH": "2026-10-01 12:52:36",
                "Comments": ""
            }
        },
        {
            "type": "Feature",
            "geometry": {
                "type": "Point",
                "coordinates": [
                    108.052,
                    15.114
                ]
            },
            "properties": {
                "Location": "ประเทศเวียดนาม (Vietnam)",
                "Magnitude": 4.7,
                "Depth_km": 10.0,
                "Time_UTC": "2026-09-30 11:24:45 UTC",
                "Time_TH": "2026-09-30 18:24:45",
                "Comments": "ทางทิศตะวันออกเฉียงใต้ของ อ. โขงเจียม จ.อุบลราชธานี ประมาณ 275 กม."
            }
        }
    ]
}